STARLINK-30613          
1 58077U 23160C   26068.07810539 -.00002148  00000+0 -70441-4 0  9990
2 58077  42.9982  81.2216 0000971 276.1310  83.9431 15.26737117132868
LIME                    
1 62648U 25009AR  26068.73906781  .00013254  00000+0  47723-3 0  9995
2 62648  97.3985 151.4831 0001635  35.9029 324.2320 15.28703313 63766
